[{"OBJECT_NAME":"STARLINK-3904","OBJECT_ID":"2022-049P","EPOCH":"2026-03-09T05:00:30.737376","MEAN_MOTION":15.08836543,"ECCENTRICITY":0.00012033,"INCLINATION":53.2173,"RA_OF_ASC_NODE":61.2803,"ARG_OF_PERICENTER":88.8475,"MEAN_ANOMALY":271.2655,"EPHEMERIS_TYPE":0,"CLASSIFICATION_TYPE":"U","NORAD_CAT_ID":52464,"ELEMENT_SET_NO":999,"REV_AT_EPOCH":21217,"BSTAR":7.757502e-6,"MEAN_MOTION_DOT":-1.64e-6,"MEAN_MOTION_DDOT":0},{"OBJECT_NAME":"CZ-4B DEB","OBJECT_ID":"2004-035N","EPOCH":"2026-03-08T07:19:22.074240","MEAN_MOTION":15.17712882,"ECCENTRICITY":0.00700404,"INCLINATION":97.867,"RA_OF_ASC_NODE":11.9774,"ARG_OF_PERICENTER":119.6038,"MEAN_ANOMALY":241.2197,"EPHEMERIS_TYPE":0,"CLASSIFICATION_TYPE":"U","NORAD_CAT_ID":35270,"ELEMENT_SET_NO":999,"REV_AT_EPOCH":13623,"BSTAR":0.0033008842,"MEAN_MOTION_DOT":0.00071474,"MEAN_MOTION_DDOT":0}]
